[{"OBJECT_NAME":"S-NET B","OBJECT_ID":"2018-014H","EPOCH":"2026-03-09T22:45:17.995680","MEAN_MOTION":15.15604995,"ECCENTRICITY":0.0009334,"INCLINATION":97.5436,"RA_OF_ASC_NODE":334.3767,"ARG_OF_PERICENTER":8.7272,"MEAN_ANOMALY":351.4121,"EPHEMERIS_TYPE":0,"CLASSIFICATION_TYPE":"U","NORAD_CAT_ID":43187,"ELEMENT_SET_NO":999,"REV_AT_EPOCH":44372,"BSTAR":0.00040571081,"MEAN_MOTION_DOT":7.649e-5,"MEAN_MOTION_DDOT":0},{"OBJECT_NAME":"STARLINK-2503","OBJECT_ID":"2021-027BM","EPOCH":"2026-03-10T00:00:02.999808","MEAN_MOTION":15.12045111,"ECCENTRICITY":0.00018339,"INCLINATION":53.0753,"RA_OF_ASC_NODE":150.1568,"ARG_OF_PERICENTER":101.727,"MEAN_ANOMALY":130.0944,"EPHEMERIS_TYPE":0,"CLASSIFICATION_TYPE":"U","NORAD_CAT_ID":48151,"ELEMENT_SET_NO":999,"REV_AT_EPOCH":569,"BSTAR":0.0047324617,"MEAN_MOTION_DOT":0.00082958,"MEAN_MOTION_DDOT":0}]
